#aV2012  9 21  0  0  0.00000000     288 DD+AD WGS84 FIT  NGA
## 1706 432000.00000000   300.00000000 56191 0.0000000000000
+   31     1  2  3  4  5  6  7  8  9 10 11 12 13 14 15 16 17
+         18 19 20 21 22 23 25 26 27 28 29 30 31 32  0  0  0
+          0  0  0  0  0  0  0  0  0  0  0  0  0  0  0  0  0
+          0  0  0  0  0  0  0  0  0  0  0  0  0  0  0  0  0
+          0  0  0  0  0  0  0  0  0  0  0  0  0  0  0  0  0
++         2  2  2  2  2  2  2  2  2  2  2  2  2  2  2  2  2
++         2  2  2  2  2  2  2  2  2  2  2  2  2  2  2  0  0
++         0  0  0  0  0  0  0  0  0  0  0  0  0  0  0  0  0
++         0  0  0  0  0  0  0  0  0  0  0  0  0  0  0  0  0
++         0  0  0  0  0  0  0  0  0  0  0  0  0  0  0  0  0
%c cc cc ccc ccc cccc cccc cccc cccc ccccc ccccc ccccc ccccc
%c cc cc ccc ccc cccc cccc cccc cccc ccccc ccccc ccccc ccccc
%f  0.0000000  0.000000000  0.00000000000  0.000000000000000
%f  0.0000000  0.000000000  0.00000000000  0.000000000000000
%i    0    0    0    0      0      0      0      0         0
%i    0    0    0    0      0      0      0      0         0
/*      NGA, ST. LOUIS,MO.                                  
/*   EPHEMERIS COMPUTED FROM  1 DAYS OF DATA
/*   EPOCHA SMOOTHER  
/* CCCCCCCCCCCCCCCCCCCCCCCCCCCCCCCCCCCCCCCCCCCCCCCCCCCCCCCCC
*  2012  9 21 16 10  0.00000000                                                 
P  1  14032.612084 -19347.579565  11510.916787    274.589486                    
V  1  -1757.596558  14760.671738  26966.368315      0.015508                    
P  2 -15354.366668  -2962.460849 -21303.151453    403.612377                    
V  2   6884.276712 -26632.288222  -1754.179557      0.011760                    
P  3  22613.524044   6606.126534  12011.284776    104.589917                    
V  3  10625.084624  12334.059344 -25484.632064      0.049627                    
P  4  -9169.230463 -16894.086306 -18466.344542    311.155569                    
V  4   8325.876526 -21628.556816  16188.440663      0.111903                    
P  5 -25681.507089   1133.928999  -6981.975028   -353.738575                    
V  5   7886.133301  -4881.206444 -29747.885038     -0.029602                    
P  6  22292.204816  11660.356488   9106.503707    -35.336581                    
V  6   6326.158664   9873.367829 -28133.507667     -0.087926                    
P  7   6475.026007 -25513.368616   2120.609335    124.585191                    
V  7   3243.708497  -1785.855484 -32128.728848      0.042930                    
P  8  -1353.899310 -21790.377702  14768.476088      2.218986                    
V  8   8575.854720 -16782.757368 -24685.621239      0.001093                    
P  9 -14743.750209  15979.865931  14747.002836    187.103502                    
V  9   3807.208862 -19332.702684  23813.139642      0.026113                    
P 10 -14589.342964 -11226.136182 -19545.973172    -52.541749                    
V 10  23354.827935  -6392.180748 -13543.891693     -0.012575                    
P 11  13704.479528 -14750.938817  16770.137321   -305.016326                    
V 11   3037.693564  22493.645702  17200.768172     -0.038877                    
P 12 -21519.492017  11581.137978 -10185.076235     92.112389                    
V 12 -13085.227808    692.099054  28668.460077      0.020284                    
P 13     34.757733 -19472.652543 -18143.124391    179.609272                    
V 13  15016.913744  17137.859784 -18609.215962     -0.025987                    
P 14  13979.465823  22151.871215   5052.943991    213.164041                    
V 14  -5531.834993  -3374.895384  31159.525273      0.008929                    
P 15 -16420.394499   4513.227002  20426.841023    -95.777260                    
V 15 -17681.317180 -19030.435113  -9782.772707     -0.007203                    
P 16  25778.243977   -234.562706  -7053.861834   -246.478287                    
V 16  -8346.796154   3445.514534 -30340.486060     -0.007768                    
P 17 -14511.209654 -21838.874199   5171.804461     94.533294                    
V 17   5990.068624   3100.179050  30757.898604     -0.032133                    
P 18  -2841.394959  16653.376473  20811.478056    216.039275                    
V 18 -25321.783344   4875.554995  -7856.467857      0.018201                    
P 19  17443.262330   -584.410185  20062.821959   -305.921533                    
V 19  15159.536176  20546.813868 -12145.002875     -0.035054                    
P 20  18868.898027 -14640.263802 -11705.093036     68.691921                    
V 20  15022.378791  -1078.201762  25989.378908      0.008376                    
P 21  -3223.345801  25547.510703   5663.687216   -251.096208                    
V 21  -5755.367487   5278.385180 -30329.390303     -0.024137                    
P 22  12437.477540  12563.779924  20044.967571    148.167898                    
V 22 -24200.297088   6907.959504  10659.817084      0.005958                    
P 23  10546.948867 -11016.827135 -21677.012855    162.213452                    
V 23  19029.377119  20106.273826  -1337.725212     -0.039140                    
P 25 -10116.198560  15826.901672 -18794.035577     43.616767                    
V 25 -23380.095657   4517.459351  16484.572230      0.013433                    
P 26 -19892.888172  -9442.256504  14484.263020   -272.964010                    
V 26 -10796.797205 -16081.657838 -23937.779493      0.131767                    
P 27 -15709.755745  11102.715555  18665.275650    433.794602                    
V 27   4348.809219 -22249.018776  17981.983856      0.042025                    
P 28  -8474.491295 -13359.305690  21928.273169    187.623569                    
V 28  25916.195790  -5195.225509   6822.700475      0.037475                    
P 29  -2576.827202  17738.341763 -19563.481161    357.943230                    
V 29 -17247.077880 -18038.526509 -14004.508144      0.040943                    
P 30  20129.252275   5368.679372 -16825.384586   -401.592350                    
V 30 -18947.266028   8485.712416 -20420.776304      0.202015                    
P 31   9545.238073  14242.277672 -20024.785186    275.875250                    
V 31  -8805.161817  24343.417569  13231.569306      0.024505                    
P 32  24951.590664  -6929.291866  -4354.701514   -490.295881                    
V 32   6316.160611   2605.138983  31197.171137     -0.040115                    
EOF
